[{"OBJECT_NAME":"STARLINK-11303 [DTC]","OBJECT_ID":"2024-220J","EPOCH":"2026-03-09T22:21:13.906080","MEAN_MOTION":15.7086617,"ECCENTRICITY":0.00012327,"INCLINATION":42.9997,"RA_OF_ASC_NODE":41.3967,"ARG_OF_PERICENTER":269.8713,"MEAN_ANOMALY":90.2014,"EPHEMERIS_TYPE":0,"CLASSIFICATION_TYPE":"U","NORAD_CAT_ID":62096,"ELEMENT_SET_NO":999,"REV_AT_EPOCH":7509,"BSTAR":0.0015776744,"MEAN_MOTION_DOT":0.00207346,"MEAN_MOTION_DDOT":0},{"OBJECT_NAME":"COSMOS 921 DEB","OBJECT_ID":"1977-055C","EPOCH":"2026-03-09T22:42:10.805760","MEAN_MOTION":15.70063735,"ECCENTRICITY":0.00183564,"INCLINATION":75.8082,"RA_OF_ASC_NODE":161.9867,"ARG_OF_PERICENTER":333.9317,"MEAN_ANOMALY":26.0991,"EPHEMERIS_TYPE":0,"CLASSIFICATION_TYPE":"U","NORAD_CAT_ID":39690,"ELEMENT_SET_NO":999,"REV_AT_EPOCH":65481,"BSTAR":0.0010474937,"MEAN_MOTION_DOT":0.0012919,"MEAN_MOTION_DDOT":0}]
